NORAD_CAT_ID,OBJECT_NAME,OBJECT_TYPE,EPOCH,MEAN_MOTION,ECCENTRICITY,INCLINATION,RA_OF_ASC_NODE,ARG_OF_PERICENTER,MEAN_ANOMALY,BSTAR,MEAN_MOTION_DOT,MEAN_MOTION_DDOT,TLE_LINE0,TLE_LINE1,TLE_LINE2,SEMIMAJOR_AXIS,PERIOD,APOGEE,PERIGEE,DECAYED
55914.0,STARLINK-5856,PAYLOAD,2024-03-01 22:14:27,14.9833248,0.0003078,70.001,4.7727,270.0223,90.0583,7.6865e-05,8.24e-06,0.0,0 STARLINK-5856,1 55914U 23037A   24061.92670589  .00000824  00000-0  76865-4 0  9998,2 55914  70.0010   4.7727 0003078 270.0223  90.0583 14.98332480 53662,6950.185,96.107,574.189,569.911,0.0
55914.0,STARLINK-5856,PAYLOAD,2024-03-02 14:15:48,14.98326959,0.0002646,70.0015,3.0894,270.3004,89.7852,0.00012709,1.424e-05,0.0,0 STARLINK-5856,1 55914U 23037A   24062.59430759  .00001424  00000-0  12709-3 0  9998,2 55914  70.0015   3.0894 0002646 270.3004  89.7852 14.98326959 53763,6950.202,96.107,573.906,570.228,0.0
55914.0,STARLINK-5856,PAYLOAD,2024-03-02 20:40:20,14.98348242,0.0002364,70.0019,2.416,266.7673,93.3216,-0.00039188,-4.768e-05,0.0,0 STARLINK-5856,1 55914U 23037A   24062.86134777 -.00004768  00000-0 -39188-3 0  9995,2 55914  70.0019   2.4160 0002364 266.7673  93.3216 14.98348242 53454,6950.136,96.106,573.644,570.358,0.0
55914.0,STARLINK-5856,PAYLOAD,2024-03-02 22:16:28,14.98327861,0.00026,70.0017,2.2478,264.8932,95.193,-6.1341e-05,-8.25e-06,0.0,0 STARLINK-5856,1 55914U 23037A   24062.92811136 -.00000825  00000-0 -61341-4 0  9990,2 55914  70.0017   2.2478 0002600 264.8932  95.1930 14.98327861 53819,6950.2,96.107,573.872,570.257,0.0
55914.0,STARLINK-5856,PAYLOAD,2024-03-03 04:41:02,14.98268207,0.0002273,70.0016,1.5744,269.504,90.5859,0.0010276,0.0001217,0.0,0 STARLINK-5856,1 55914U 23037A   24063.19516366  .00012170  00000-0  10276-2 0  9990,2 55914  70.0016   1.5744 0002273 269.5040  90.5859 14.98268207 53507,6950.384,96.111,573.829,570.669,0.0
55914.0,STARLINK-5856,PAYLOAD,2024-03-03 20:42:21,14.98331237,0.0002553,70.0019,359.8918,261.3512,98.7358,2.7059e-05,2.3e-06,0.0,0 STARLINK-5856,1 55914U 23037A   24063.86274518  .00000230  00000-0  27059-4 0  9997,2 55914  70.0019 359.8918 0002553 261.3512  98.7358 14.98331237 53954,6950.189,96.107,573.828,570.28,0.0
55914.0,STARLINK-5856,PAYLOAD,2024-03-04 04:43:00,14.98345103,0.0002776,70.0011,359.0529,253.6432,106.4422,8.2106e-05,8.87e-06,0.0,0 STARLINK-5856,1 55914U 23037A   24064.19653294  .00000887  00000-0  82106-4 0  9998,2 55914  70.0011 359.0529 0002776 253.6432 106.4422 14.98345103 53651,6950.146,96.106,573.941,570.082,0.0
55914.0,STARLINK-5856,PAYLOAD,2024-03-04 12:43:41,14.98337784,0.000277,70.0008,358.2073,275.4969,84.5874,1.8345e-05,1.26e-06,0.0,0 STARLINK-5856,1 55914U 23037A   24064.53033795  .00000126  00000-0  18345-4 0  9994,2 55914  70.0008 358.2073 0002770 275.4969  84.5874 14.98337784 54051,6950.169,96.106,573.959,570.109,0.0
55914.0,STARLINK-5856,PAYLOAD,2024-03-04 20:44:22,14.9832512,0.0002095,70.0037,357.3707,258.1302,101.9622,3.5134e-05,3.26e-06,0.0,0 STARLINK-5856,1 55914U 23037A   24064.86414641  .00000326  00000-0  35134-4 0  9990,2 55914  70.0037 357.3707 0002095 258.1302 101.9622 14.98325120 53758,6950.208,96.107,573.529,570.617,0.0
55914.0,STARLINK-5856,PAYLOAD,2024-03-04 22:20:30,14.98323871,0.0002192,70.0036,357.2026,262.1709,97.9201,1.925e-05,1.37e-06,0.0,0 STARLINK-5856,1 55914U 23037A   24064.93090788  .00000137  00000-0  19250-4 0  9991,2 55914  70.0036 357.2026 0002192 262.1709  97.9201 14.98323871 54113,6950.212,96.107,573.6,570.553,0.0
55914.0,STARLINK-5856,PAYLOAD,2024-03-05 04:45:02,14.98328083,0.0002652,70.0013,356.5261,271.9141,88.1714,-9.1629e-07,-1.04e-06,0.0,0 STARLINK-5856,1 55914U 23037A   24065.19794603 -.00000104  00000-0 -91629-6 0  9995,2 55914  70.0013 356.5261 0002652 271.9141  88.1714 14.98328083 54155,6950.199,96.107,573.907,570.221,0.0
55914.0,STARLINK-5856,PAYLOAD,2024-03-05 20:46:23,14.98327393,0.0002779,70.0015,354.8428,272.5063,87.5778,2.4718e-05,2.02e-06,0.0,0 STARLINK-5856,1 55914U 23037A   24065.86554629  .00000202  00000-0  24718-4 0  9991,2 55914  70.0015 354.8428 0002779 272.5063  87.5778 14.98327393 53901,6950.201,96.107,573.997,570.134,0.0
55914.0,STARLINK-5856,PAYLOAD,2024-03-06 04:47:03,14.98329692,0.0002528,70.0016,354.0013,267.6897,92.3973,5.8386e-05,6.04e-06,0.0,0 STARLINK-5856,1 55914U 23037A   24066.19934440  .00000604  00000-0  58386-4 0  9995,2 55914  70.0016 354.0013 0002528 267.6897  92.3973 14.98329692 54306,6950.194,96.107,573.816,570.302,0.0
55914.0,STARLINK-5856,PAYLOAD,2024-03-07 03:12:56,14.98326023,0.0002612,70.0011,351.6426,270.0642,90.0218,6.5393e-05,6.87e-06,0.0,0 STARLINK-5856,1 55914U 23037A   24067.13398689  .00000687  00000-0  65393-4 0  9996,2 55914  70.0011 351.6426 0002612 270.0642  90.0218 14.98326023 54090,6950.205,96.107,573.886,570.255,0.0
55914.0,STARLINK-5856,PAYLOAD,2024-03-07 12:49:44,14.98334372,0.0002573,70.0016,350.6339,270.7372,89.3492,-6.7785e-05,-9.02e-06,0.0,0 STARLINK-5856,1 55914U 23037A   24067.53454497 -.00000902  00000-0 -67785-4 0  9999,2 55914  70.0016 350.6339 0002573 270.7372  89.3492 14.98334372 54507,6950.179,96.107,573.833,570.256,0.0
55914.0,STARLINK-5856,PAYLOAD,2024-03-08 03:14:57,14.9833209,0.0002699,70.0011,349.1191,270.7171,89.3679,5.1519e-05,5.22e-06,0.0,0 STARLINK-5856,1 55914U 23037A   24068.13538445  .00000522  00000-0  51519-4 0  9996,2 55914  70.0011 349.1191 0002699 270.7171  89.3679 14.98332090 54240,6950.186,96.107,573.927,570.176,0.0
55914.0,STARLINK-5856,PAYLOAD,2024-03-08 04:51:05,14.9833186,0.0002432,70.0018,348.952,258.3222,101.7665,4.0727e-05,3.93e-06,0.0,0 STARLINK-5856,1 55914U 23037A   24068.20214472  .00000393  00000-0  40727-4 0  9990,2 55914  70.0018 348.9520 0002432 258.3222 101.7665 14.98331860 54602,6950.187,96.107,573.742,570.362,0.0
55914.0,STARLINK-5856,PAYLOAD,2024-03-09 03:16:58,14.98331013,0.0002312,70.0021,346.5946,268.5708,91.5187,8.4502e-05,9.16e-06,0.0,0 STARLINK-5856,1 55914U 23037A   24069.13678294  .00000916  00000-0  84502-4 0  9999,2 55914  70.0021 346.5946 0002312 268.5708  91.5187 14.98331013 54392,6950.19,96.107,573.662,570.448,0.0
55914.0,STARLINK-5856,PAYLOAD,2024-03-09 04:53:06,14.9833216,0.0002298,70.0022,346.4263,268.1474,91.9421,0.00010131,1.116e-05,0.0,0 STARLINK-5856,1 55914U 23037A   24069.20354187  .00001116  00000-0  10131-3 0  9998,2 55914  70.0022 346.4263 0002298 268.1474  91.9421 14.98332160 54752,6950.186,96.107,573.648,570.454,0.0
55914.0,STARLINK-5856,PAYLOAD,2024-03-10 04:55:07,14.98292929,0.0002752,70.0022,343.901,263.8288,96.2558,0.00065053,7.67e-05,0.0,0 STARLINK-5856,1 55914U 23037A   24070.20495214  .00007670  00000-0  65053-3 0  9991,2 55914  70.0022 343.9010 0002752 263.8288  96.2558 14.98292929 54559,6950.308,96.109,574.085,570.26,0.0
55914.0,STARLINK-5856,PAYLOAD,2024-03-10 11:19:39,14.98321536,0.0002248,70.0021,343.228,270.1495,89.9407,0.0001291,1.447e-05,0.0,0 STARLINK-5856,1 55914U 23037A   24070.47198665  .00001447  00000-0  12910-3 0  9990,2 55914  70.0021 343.2280 0002248 270.1495  89.9407 14.98321536 54594,6950.219,96.108,573.646,570.522,0.0
55914.0,STARLINK-5856,PAYLOAD,2024-03-10 22:32:36,14.98329829,0.0002604,70.0011,342.0498,269.6714,90.4147,-0.0001021,-1.311e-05,0.0,0 STARLINK-5856,1 55914U 23037A   24070.93930640 -.00001311  00000-0 -10210-3 0  9991,2 55914  70.0011 342.0498 0002604 269.6714  90.4147 14.98329829 55013,6950.193,96.107,573.868,570.249,0.0
55914.0,STARLINK-5856,PAYLOAD,2024-03-11 11:21:40,14.983311,0.0002855,70.0001,340.7035,269.3335,90.7497,-9.2924e-05,-1.202e-05,0.0,0 STARLINK-5856,1 55914U 23037A   24071.47338370 -.00001202  00000-0 -92924-4 0  9995,2 55914  70.0001 340.7035 0002855 269.3335  90.7497 14.98331100 54743,6950.189,96.107,574.039,570.07,0.0
55914.0,STARLINK-5856,PAYLOAD,2024-03-12 17:48:13,14.98327199,0.0002793,69.9999,337.5053,270.134,89.9499,7.1961e-05,7.66e-06,0.0,0 STARLINK-5856,1 55914U 23037A   24072.74182378  .00000766  00000-0  71961-4 0  9991,2 55914  69.9999 337.5053 0002793 270.1340  89.9499 14.98327199 55282,6950.202,96.107,574.008,570.125,0.0
55914.0,STARLINK-5856,PAYLOAD,2024-03-13 03:25:01,14.98334114,0.0002863,69.9999,336.4951,269.9307,90.1523,8.8209e-05,9.6e-06,0.0,0 STARLINK-5856,1 55914U 23037A   24073.14237877  .00000960  00000-0  88209-4 0  9990,2 55914  69.9999 336.4951 0002863 269.9307  90.1523 14.98334114 54998,6950.18,96.107,574.035,570.055,0.0
55914.0,STARLINK-5856,PAYLOAD,2024-03-13 11:25:42,14.98330426,0.0002788,70.0003,335.6531,270.4293,89.6546,4.3072e-05,4.21e-06,0.0,0 STARLINK-5856,1 55914U 23037A   24073.47618200  .00000421  00000-0  43072-4 0  9990,2 55914  70.0003 335.6531 0002788 270.4293  89.6546 14.98330426 55394,6950.192,96.107,573.994,570.119,0.0
55914.0,STARLINK-5856,PAYLOAD,2024-03-13 22:38:38,14.98330173,0.0002801,70.0004,334.475,270.4728,89.611,3.7082e-05,3.5e-06,0.0,0 STARLINK-5856,1 55914U 23037A   24073.94350221  .00000350  00000-0  37082-4 0  9993,2 55914  70.0004 334.4750 0002801 270.4728  89.6110 14.98330173 55468,6950.192,96.107,574.004,570.111,0.0
55914.0,STARLINK-5856,PAYLOAD,2024-03-14 03:27:02,14.98333587,0.0002792,70.0004,333.9699,270.5764,89.5075,4.4978e-05,4.44e-06,0.0,0 STARLINK-5856,1 55914U 23037A   24074.14377952  .00000444  00000-0  44978-4 0  9992,2 55914  70.0004 333.9699 0002792 270.5764  89.5075 14.98333587 55140,6950.182,96.107,573.987,570.106,0.0
55914.0,STARLINK-5856,PAYLOAD,2024-03-14 21:04:27,14.98370542,0.0002978,70.0001,332.1184,253.68,106.4031,0.00030353,3.534e-05,0.0,0 STARLINK-5856,1 55914U 23037A   24074.87809063  .00003534  00000-0  30353-3 0  9999,2 55914  70.0001 332.1184 0002978 253.6800 106.4031 14.98370542 55251,6950.068,96.104,574.002,569.863,0.0
55914.0,STARLINK-5856,PAYLOAD,2024-03-15 03:29:02,14.98323764,0.0002777,70.0001,331.4452,277.5373,82.5471,-0.00020602,-2.55e-05,0.0,0 STARLINK-5856,1 55914U 23037A   24075.14517321 -.00002550  00000-0 -20602-3 0  9998,2 55914  70.0001 331.4452 0002777 277.5373  82.5471 14.98323764 55298,6950.212,96.107,574.007,570.147,0.0
